CUBESAT XI-V            
1 28895U 05043F   26032.96642165  .00001738  00000+0  28391-3 0  9990
2 28895  98.2769 185.9339 0013152 274.7638  85.2066 14.72150132 81857
CLOUDSAT                
1 29107U 06016A   26032.96201267  .00001253  00000+0  15003-3 0  9990
2 29107  98.4094  62.6687 0006321  57.6155 302.5670 14.86061863 54422
CALIPSO                 
1 29108U 06016B   26032.97365485  .00001263  00000+0  22430-3 0  9998
2 29108  98.4526  44.0142 0001242  69.5443 290.5895 14.69026659 53207
HINODE (SOLAR-B)        
1 29479U 06041A   26032.93424519  .00000743  00000+0  13666-3 0  9990
2 29479  98.0635  51.0403 0017476   1.7670 358.3593 14.68409023 35026
METOP-A                 
1 29499U 06044A   26032.93030649  .00002702  00000+0  31642-3 0  9993
2 29499  98.3265 135.5317 0176304 140.3145 328.4591 14.75385659  5507
SHIJIAN-6 02B (SJ-6 02B)
1 29506U 06046B   26032.96388796  .00002248  00000+0  18147-3 0  9996
2 29506  97.6988  63.0112 0013232 155.8371 204.3477 15.00810108 50450
DMSP 5D-3 F17 (USA 191) 
1 29522U 06050A   26032.96786048  .00000173  00000+0  11192-3 0  9999
2 29522  98.7402  42.2936 0011132  83.4945 276.7496 14.14946943993297
LAPAN-TUBSAT            
1 29709U 07001A   26032.96511735  .00000831  00000+0  10217-3 0  9990
2 29709  98.1291  29.1906 0010727 266.4590  93.5398 14.85772352 31077
HAIYANG-1B              
1 31113U 07010A   26032.91755277  .00000115  00000+0  59687-4 0  9998
2 31113  98.3373  20.0975 0012417 240.3488 119.6460 14.30986843981282
BEIDOU-2 M1             
1 31115U 07011A   26032.49529450  .00000044  00000+0  00000+0 0  9997
2 31115  50.9793 223.7863 0002840  35.0191 325.0087  1.77349252 73746
CAPE-1                  
1 31130U 07012P   26032.90735601  .00001411  00000+0  26286-3 0  9995
2 31130  98.4307   3.9366 0085013 132.7917 228.0474 14.64426386998541
CBERS 2B                
1 32062U 07042A   26032.81082488  .00000345  00000+0  11904-3 0  9997
2 32062  98.3780 339.9418 0031617  24.4593  28.8303 14.41386570965184
COSMO-SKYMED 2          
1 32376U 07059A   26032.93742302  .00000606  00000+0  82801-4 0  9999
2 32376  97.8837 218.4960 0001529  80.7302 279.4084 14.82113932981963
CARTOSAT-2A             
1 32783U 08021A   26032.95352506  .00000336  00000+0  52156-4 0  9996
2 32783  97.7855  86.1587 0011556 184.2953 175.8161 14.79029060958819
CUTE-1.7+APD II (CO-65) 
1 32785U 08021C   26032.95071631  .00006566  00000+0  43248-3 0  9997
2 32785  97.8145  11.8125 0010660 122.6084 237.6174 15.07826089964808
SEEDS II (CO-66)        
1 32791U 08021J   26032.97495389  .00017313  00000+0  64614-3 0  9998
2 32791  97.7478  24.9765 0005613  76.9082 283.2783 15.27457336966610
