[{"OBJECT_NAME":"CUBESAT XI-V","OBJECT_ID":"2005-043F","EPOCH":"2026-02-01T23:11:38.830560","MEAN_MOTION":14.72150132,"ECCENTRICITY":0.00131523,"INCLINATION":98.2769,"RA_OF_ASC_NODE":185.9339,"ARG_OF_PERICENTER":274.7638,"MEAN_ANOMALY":85.2066,"EPHEMERIS_TYPE":0,"CLASSIFICATION_TYPE":"U","NORAD_CAT_ID":28895,"ELEMENT_SET_NO":999,"REV_AT_EPOCH":8185,"BSTAR":0.00028390647,"MEAN_MOTION_DOT":1.738e-5,"MEAN_MOTION_DDOT":0},{"OBJECT_NAME":"CLOUDSAT","OBJECT_ID":"2006-016A","EPOCH":"2026-02-01T23:05:17.894688","MEAN_MOTION":14.86061863,"ECCENTRICITY":0.00063216,"INCLINATION":98.4094,"RA_OF_ASC_NODE":62.6687,"ARG_OF_PERICENTER":57.6155,"MEAN_ANOMALY":302.567,"EPHEMERIS_TYPE":0,"CLASSIFICATION_TYPE":"U","NORAD_CAT_ID":29107,"ELEMENT_SET_NO":999,"REV_AT_EPOCH":5442,"BSTAR":0.00015002614,"MEAN_MOTION_DOT":1.253e-5,"MEAN_MOTION_DDOT":0},{"OBJECT_NAME":"CALIPSO","OBJECT_ID":"2006-016B","EPOCH":"2026-02-01T23:22:03.779040","MEAN_MOTION":14.69026659,"ECCENTRICITY":0.00012426,"INCLINATION":98.4526,"RA_OF_ASC_NODE":44.0142,"ARG_OF_PERICENTER":69.5443,"MEAN_ANOMALY":290.5895,"EPHEMERIS_TYPE":0,"CLASSIFICATION_TYPE":"U","NORAD_CAT_ID":29108,"ELEMENT_SET_NO":999,"REV_AT_EPOCH":5320,"BSTAR":0.00022429828,"MEAN_MOTION_DOT":1.263e-5,"MEAN_MOTION_DDOT":0},{"OBJECT_NAME":"HINODE (SOLAR-B)","OBJECT_ID":"2006-041A","EPOCH":"2026-02-01T22:25:18.784416","MEAN_MOTION":14.68409023,"ECCENTRICITY":0.00174765,"INCLINATION":98.0635,"RA_OF_ASC_NODE":51.0403,"ARG_OF_PERICENTER":1.767,"MEAN_ANOMALY":358.3593,"EPHEMERIS_TYPE":0,"CLASSIFICATION_TYPE":"U","NORAD_CAT_ID":29479,"ELEMENT_SET_NO":999,"REV_AT_EPOCH":3502,"BSTAR":0.00013666284,"MEAN_MOTION_DOT":7.43e-6,"MEAN_MOTION_DDOT":0},{"OBJECT_NAME":"METOP-A","OBJECT_ID":"2006-044A","EPOCH":"2026-02-01T22:19:38.480736","MEAN_MOTION":14.75385659,"ECCENTRICITY":0.01763044,"INCLINATION":98.3265,"RA_OF_ASC_NODE":135.5317,"ARG_OF_PERICENTER":140.3145,"MEAN_ANOMALY":328.4591,"EPHEMERIS_TYPE":0,"CLASSIFICATION_TYPE":"U","NORAD_CAT_ID":29499,"ELEMENT_SET_NO":999,"REV_AT_EPOCH":550,"BSTAR":0.00031642113,"MEAN_MOTION_DOT":2.702e-5,"MEAN_MOTION_DDOT":0},{"OBJECT_NAME":"SHIJIAN-6 02B (SJ-6 02B)","OBJECT_ID":"2006-046B","EPOCH":"2026-02-01T23:07:59.919744","MEAN_MOTION":15.00810108,"ECCENTRICITY":0.00132321,"INCLINATION":97.6988,"RA_OF_ASC_NODE":63.0112,"ARG_OF_PERICENTER":155.8371,"MEAN_ANOMALY":204.3477,"EPHEMERIS_TYPE":0,"CLASSIFICATION_TYPE":"U","NORAD_CAT_ID":29506,"ELEMENT_SET_NO":999,"REV_AT_EPOCH":5045,"BSTAR":0.00018146501,"MEAN_MOTION_DOT":2.248e-5,"MEAN_MOTION_DDOT":0},{"OBJECT_NAME":"DMSP 5D-3 F17 (USA 191)","OBJECT_ID":"2006-050A","EPOCH":"2026-02-01T23:13:43.145472","MEAN_MOTION":14.14946943,"ECCENTRICITY":0.0011132,"INCLINATION":98.7402,"RA_OF_ASC_NODE":42.2936,"ARG_OF_PERICENTER":83.4945,"MEAN_ANOMALY":276.7496,"EPHEMERIS_TYPE":0,"CLASSIFICATION_TYPE":"U","NORAD_CAT_ID":29522,"ELEMENT_SET_NO":999,"REV_AT_EPOCH":99329,"BSTAR":0.00011191678,"MEAN_MOTION_DOT":1.73e-6,"MEAN_MOTION_DDOT":0},{"OBJECT_NAME":"LAPAN-TUBSAT","OBJECT_ID":"2007-001A","EPOCH":"2026-02-01T23:09:46.139040","MEAN_MOTION":14.85772352,"ECCENTRICITY":0.00107278,"INCLINATION":98.1291,"RA_OF_ASC_NODE":29.1906,"ARG_OF_PERICENTER":266.459,"MEAN_ANOMALY":93.5398,"EPHEMERIS_TYPE":0,"CLASSIFICATION_TYPE":"U","NORAD_CAT_ID":29709,"ELEMENT_SET_NO":999,"REV_AT_EPOCH":3107,"BSTAR":0.00010217252,"MEAN_MOTION_DOT":8.31e-6,"MEAN_MOTION_DDOT":0},{"OBJECT_NAME":"HAIYANG-1B","OBJECT_ID":"2007-010A","EPOCH":"2026-02-01T22:01:16.559328","MEAN_MOTION":14.30986843,"ECCENTRICITY":0.00124171,"INCLINATION":98.3373,"RA_OF_ASC_NODE":20.0975,"ARG_OF_PERICENTER":240.3488,"MEAN_ANOMALY":119.646,"EPHEMERIS_TYPE":0,"CLASSIFICATION_TYPE":"U","NORAD_CAT_ID":31113,"ELEMENT_SET_NO":999,"REV_AT_EPOCH":98128,"BSTAR":5.9686557e-5,"MEAN_MOTION_DOT":1.15e-6,"MEAN_MOTION_DDOT":0},{"OBJECT_NAME":"BEIDOU-2 M1","OBJECT_ID":"2007-011A","EPOCH":"2026-02-01T11:53:13.444800","MEAN_MOTION":1.77349252,"ECCENTRICITY":0.00028403,"INCLINATION":50.9793,"RA_OF_ASC_NODE":223.7863,"ARG_OF_PERICENTER":35.0191,"MEAN_ANOMALY":325.0087,"EPHEMERIS_TYPE":0,"CLASSIFICATION_TYPE":"U","NORAD_CAT_ID":31115,"ELEMENT_SET_NO":999,"REV_AT_EPOCH":7374,"BSTAR":0,"MEAN_MOTION_DOT":4.4e-7,"MEAN_MOTION_DDOT":0},{"OBJECT_NAME":"CAPE-1","OBJECT_ID":"2007-012P","EPOCH":"2026-02-01T21:46:35.559264","MEAN_MOTION":14.64426386,"ECCENTRICITY":0.00850137,"INCLINATION":98.4307,"RA_OF_ASC_NODE":3.9366,"ARG_OF_PERICENTER":132.7917,"MEAN_ANOMALY":228.0474,"EPHEMERIS_TYPE":0,"CLASSIFICATION_TYPE":"U","NORAD_CAT_ID":31130,"ELEMENT_SET_NO":999,"REV_AT_EPOCH":99854,"BSTAR":0.00026286136,"MEAN_MOTION_DOT":1.411e-5,"MEAN_MOTION_DDOT":0},{"OBJECT_NAME":"CBERS 2B","OBJECT_ID":"2007-042A","EPOCH":"2026-02-01T19:27:35.269632","MEAN_MOTION":14.4138657,"ECCENTRICITY":0.00316171,"INCLINATION":98.378,"RA_OF_ASC_NODE":339.9418,"ARG_OF_PERICENTER":24.4593,"MEAN_ANOMALY":28.8303,"EPHEMERIS_TYPE":0,"CLASSIFICATION_TYPE":"U","NORAD_CAT_ID":32062,"ELEMENT_SET_NO":999,"REV_AT_EPOCH":96518,"BSTAR":0.00011903616,"MEAN_MOTION_DOT":3.45e-6,"MEAN_MOTION_DDOT":0},{"OBJECT_NAME":"COSMO-SKYMED 2","OBJECT_ID":"2007-059A","EPOCH":"2026-02-01T22:29:53.348928","MEAN_MOTION":14.82113932,"ECCENTRICITY":0.00015298,"INCLINATION":97.8837,"RA_OF_ASC_NODE":218.496,"ARG_OF_PERICENTER":80.7302,"MEAN_ANOMALY":279.4084,"EPHEMERIS_TYPE":0,"CLASSIFICATION_TYPE":"U","NORAD_CAT_ID":32376,"ELEMENT_SET_NO":999,"REV_AT_EPOCH":98196,"BSTAR":8.2800724e-5,"MEAN_MOTION_DOT":6.06e-6,"MEAN_MOTION_DDOT":0},{"OBJECT_NAME":"CARTOSAT-2A","OBJECT_ID":"2008-021A","EPOCH":"2026-02-01T22:53:04.565184","MEAN_MOTION":14.7902906,"ECCENTRICITY":0.00115564,"INCLINATION":97.7855,"RA_OF_ASC_NODE":86.1587,"ARG_OF_PERICENTER":184.2953,"MEAN_ANOMALY":175.8161,"EPHEMERIS_TYPE":0,"CLASSIFICATION_TYPE":"U","NORAD_CAT_ID":32783,"ELEMENT_SET_NO":999,"REV_AT_EPOCH":95881,"BSTAR":5.2155959e-5,"MEAN_MOTION_DOT":3.36e-6,"MEAN_MOTION_DDOT":0},{"OBJECT_NAME":"CUTE-1.7+APD II (CO-65)","OBJECT_ID":"2008-021C","EPOCH":"2026-02-01T22:49:01.889184","MEAN_MOTION":15.07826089,"ECCENTRICITY":0.00106606,"INCLINATION":97.8145,"RA_OF_ASC_NODE":11.8125,"ARG_OF_PERICENTER":122.6084,"MEAN_ANOMALY":237.6174,"EPHEMERIS_TYPE":0,"CLASSIFICATION_TYPE":"U","NORAD_CAT_ID":32785,"ELEMENT_SET_NO":999,"REV_AT_EPOCH":96480,"BSTAR":0.00043248023,"MEAN_MOTION_DOT":6.566e-5,"MEAN_MOTION_DDOT":0},{"OBJECT_NAME":"SEEDS II (CO-66)","OBJECT_ID":"2008-021J","EPOCH":"2026-02-01T23:23:56.016096","MEAN_MOTION":15.27457336,"ECCENTRICITY":0.00056132,"INCLINATION":97.7478,"RA_OF_ASC_NODE":24.9765,"ARG_OF_PERICENTER":76.9082,"MEAN_ANOMALY":283.2783,"EPHEMERIS_TYPE":0,"CLASSIFICATION_TYPE":"U","NORAD_CAT_ID":32791,"ELEMENT_SET_NO":999,"REV_AT_EPOCH":96661,"BSTAR":0.00064614395,"MEAN_MOTION_DOT":0.00017313,"MEAN_MOTION_DDOT":0}]
